      2.10          N: GNSS NAV DATA                        RINEX VERSION / TYPE
fic2rin                                 10/10/2022 00:18:15 PGM / RUN BY / DATE
                                                            END OF HEADER
27 22 10 10  0  0  0.0  .200534239411D-03 -.602540239925D-11  .000000000000D+00
     .740000000000D+02 -.101218750000D+03  .459126267309D-08 -.898982138146D+00
    -.529177486897D-05  .106431083987D-01  .562518835068D-05  .515365791130D+04
     .864000000000D+05  .244006514549D-06 -.946224052201D+00  .176951289177D-06
     .970491143572D+00  .275406250000D+03  .685595324609D+00 -.833856162028D-08
    -.624311719375D-09  .100000000000D+01  .223100000000D+04  .000000000000D+00
     .240000000000D+01  .000000000000D+00  .139698386192D-08  .740000000000D+02
     .792000000000D+05  .400000000000D+01
24 22 10 10  0  0  0.0  .105784740299D-03 -.142108547152D-10  .000000000000D+00
     .650000000000D+02  .404687500000D+02  .468733810359D-08 -.283932885907D+01
     .177510082722D-05  .131623935886D-01  .141710042953D-04  .515368544006D+04
     .864000000000D+05  .782310962677D-07 -.312178280004D+01 -.223517417908D-06
     .934686337689D+00  .901562500000D+02  .845784927434D+00 -.790997233924D-08
     .814319633967D-10  .100000000000D+01  .223100000000D+04  .000000000000D+00
     .240000000000D+01  .000000000000D+00  .279396772385D-08  .650000000000D+02
     .792000000000D+05  .400000000000D+01
26 22 10 10  0  0  0.0  .231858808547D-03  .147792889038D-11  .000000000000D+00
     .460000000000D+02  .927812500000D+02  .558166107002D-08  .866511388397D+00
     .500679016113D-05  .722934084479D-02  .381655991077D-05  .515357121658D+04
     .864000000000D+05  .335276126862D-07 -.205228588860D+01  .186264514923D-07
     .935929383570D+00  .288875000000D+03  .380695692567D+00 -.892322883115D-08
     .298941023522D-09  .100000000000D+01  .223100000000D+04  .000000000000D+00
     .240000000000D+01  .000000000000D+00  .698491930962D-08  .460000000000D+02
     .792000000000D+05  .400000000000D+01
22 22 10 10  0  0  0.0  .342815183103D-03  .693489710102D-11  .000000000000D+00
     .790000000000D+02 -.722812500000D+02  .477234164433D-08 -.111941429347D+01
    -.344589352608D-05  .134721848881D-01  .802241265774D-05  .515374314308D+04
     .864000000000D+05 -.558793544769D-08  .228004289084D+01  .311061739922D-06
     .961851032362D+00  .226125000000D+03 -.184540724503D+01 -.833177562333D-08
    -.525736184737D-09  .100000000000D+01  .223100000000D+04  .000000000000D+00
     .240000000000D+01  .000000000000D+00 -.791624188423D-08  .790000000000D+02
     .792000000000D+05  .400000000000D+01
23 22 10 10  0  0  0.0 -.881962478161D-06 -.341060513165D-12  .000000000000D+00
     .199000000000D+03  .599687500000D+02  .463555023213D-08  .236211891050D+01
     .312738120556D-05  .274362065829D-02  .515952706337D-05  .515362015152D+04
     .864000000000D+05 -.223517417908D-07  .112091818496D+01  .204890966415D-07
     .970223166238D+00  .282687500000D+03  .302775191185D+01 -.825320092180D-08
     .478948521557D-09  .100000000000D+01  .223100000000D+04  .000000000000D+00
     .240000000000D+01  .000000000000D+00 -.838190317154D-08  .967000000000D+03
     .792000000000D+05  .400000000000D+01
18 22 10 10  0  0  0.0  .202199444175D-04 -.133013600134D-10  .000000000000D+00
     .143000000000D+03  .562500000000D+00  .386801826134D-08 -.290439498017D+01
     .372529029846D-08  .290506670717D-02  .143125653267D-04  .515372661972D+04
     .864000000000D+05 -.335276126862D-07  .121644682624D+00  .558793544769D-08
     .972907243480D+00  .108812500000D+03  .309444724385D+01 -.764103256539D-08
     .195008122871D-09  .100000000000D+01  .223100000000D+04  .000000000000D+00
     .240000000000D+01  .000000000000D+00 -.838190317154D-08  .655000000000D+03
     .792000000000D+05  .400000000000D+01
28 22 10 10  0  0  0.0  .330905895680D-03 -.443378667114D-11  .000000000000D+00
     .830000000000D+02  .545937500000D+02  .500592280249D-08 -.470552936921D+00
     .287219882011D-05  .164197974373D-01  .319071114063D-05  .515365394020D+04
     .864000000000D+05 -.154599547386D-06 -.189935957894D+01 -.484287738800D-07
     .966468218332D+00  .323937500000D+03 -.125519291084D+01 -.882358182331D-08
     .326442169055D-09  .100000000000D+01  .223100000000D+04  .000000000000D+00
     .340000000000D+01  .630000000000D+02 -.111758708954D-07  .830000000000D+02
     .792000000000D+05  .400000000000D+01
18 22 10 10  0 44 32.0  .201850198209D-04 -.133013600134D-10  .000000000000D+00
     .144000000000D+03  .393750000000D+01  .383730269620D-08 -.251458572929D+01
     .139698386192D-06  .290449964814D-02  .141672790051D-04  .515372774696D+04
     .890720000000D+05 -.316649675369D-07  .121624263213D+00  .111758708954D-07
     .972907770131D+00  .112406250000D+03  .309435785956D+01 -.763746098805D-08
     .193579491934D-09  .100000000000D+01  .223100000000D+04  .000000000000D+00
     .240000000000D+01  .000000000000D+00 -.838190317154D-08  .656000000000D+03
     .819000000000D+05  .400000000000D+01
13 22 10  9 23 59 44.0  .403111800551D-03  .704858393874D-11  .000000000000D+00
     .500000000000D+02 -.656562500000D+02  .446661462386D-08 -.139290444968D+01
    -.337138772011D-05  .655059469864D-02  .841729342937D-05  .515367314529D+04
     .863840000000D+05  .141561031342D-06  .233338511623D+01  .651925802231D-07
     .969134816629D+00  .218562500000D+03  .944637280552D+00 -.802390565645D-08
    -.485020203038D-09  .100000000000D+01  .223100000000D+04  .000000000000D+00
     .240000000000D+01  .000000000000D+00 -.111758708954D-07  .500000000000D+02
     .832200000000D+05  .400000000000D+01
32 22 10  9 23 59 44.0 -.258457381278D-03 -.118234311230D-10  .000000000000D+00
     .200000000000D+01 -.727500000000D+02  .489627537809D-08 -.186792939259D+00
    -.373460352421D-05  .613361841533D-02  .699795782566D-05  .515365271187D+04
     .863840000000D+05  .428408384323D-07  .218894643345D+01  .104308128357D-06
     .958625002488D+00  .245937500000D+03 -.229703173362D+01 -.840963600938D-08
    -.491091884520D-09  .100000000000D+01  .223100000000D+04  .000000000000D+00
     .240000000000D+01  .000000000000D+00  .465661287308D-09  .200000000000D+01
     .833400000000D+05  .400000000000D+01
